CCSDS_OMM_VERS = 2.0
CREATION_DATE  = 
ORIGINATOR     = 

OBJECT_NAME    = ALOS (DAICHI)
OBJECT_ID      = 2006-002A
CENTER_NAME    = EARTH
REF_FRAME      = TEME
TIME_SYSTEM    = UTC
MEAN_ELEMENT_THEORY = SGP/SGP4

EPOCH          = 2025-12-03T18:36:23.709024
MEAN_MOTION    = 14.69441899
ECCENTRICITY   = .0000744
INCLINATION    = 98.1077
RA_OF_ASC_NODE = 289.3267
ARG_OF_PERICENTER = 104.5064
MEAN_ANOMALY   = 255.6225

EPHEMERIS_TYPE = 0
CLASSIFICATION_TYPE = U
NORAD_CAT_ID   = 28931
ELEMENT_SET_NO = 999
REV_AT_EPOCH   = 5939
BSTAR          = .39011E-3
MEAN_MOTION_DOT = .2261E-4
MEAN_MOTION_DDOT = 0

CCSDS_OMM_VERS = 2.0
CREATION_DATE  = 
ORIGINATOR     = 

OBJECT_NAME    = H-2A R/B
OBJECT_ID      = 2006-002B
CENTER_NAME    = EARTH
REF_FRAME      = TEME
TIME_SYSTEM    = UTC
MEAN_ELEMENT_THEORY = SGP/SGP4

EPOCH          = 2025-12-03T08:05:06.489024
MEAN_MOTION    = 15.14256927
ECCENTRICITY   = .005456
INCLINATION    = 98.2309
RA_OF_ASC_NODE = 111.3196
ARG_OF_PERICENTER = 208.4189
MEAN_ANOMALY   = 151.4063

EPHEMERIS_TYPE = 0
CLASSIFICATION_TYPE = U
NORAD_CAT_ID   = 28932
ELEMENT_SET_NO = 999
REV_AT_EPOCH   = 7984
BSTAR          = .77007E-3
MEAN_MOTION_DOT = .14551E-3
MEAN_MOTION_DDOT = 0

CCSDS_OMM_VERS = 2.0
CREATION_DATE  = 
ORIGINATOR     = 

OBJECT_NAME    = RESURS-DK 1
OBJECT_ID      = 2006-021A
CENTER_NAME    = EARTH
REF_FRAME      = TEME
TIME_SYSTEM    = UTC
MEAN_ELEMENT_THEORY = SGP/SGP4

EPOCH          = 2025-12-03T18:25:27.132960
MEAN_MOTION    = 15.12077009
ECCENTRICITY   = .0007826
INCLINATION    = 69.9328
RA_OF_ASC_NODE = 125.0216
ARG_OF_PERICENTER = 265.1820
MEAN_ANOMALY   = 94.8452

EPHEMERIS_TYPE = 0
CLASSIFICATION_TYPE = U
NORAD_CAT_ID   = 29228
ELEMENT_SET_NO = 999
REV_AT_EPOCH   = 7302
BSTAR          = .2822E-3
MEAN_MOTION_DOT = .4765E-4
MEAN_MOTION_DDOT = 0

CCSDS_OMM_VERS = 2.0
CREATION_DATE  = 
ORIGINATOR     = 

OBJECT_NAME    = CZ-4B R/B
OBJECT_ID      = 2006-046C
CENTER_NAME    = EARTH
REF_FRAME      = TEME
TIME_SYSTEM    = UTC
MEAN_ELEMENT_THEORY = SGP/SGP4

EPOCH          = 2025-12-03T18:59:24.245376
MEAN_MOTION    = 15.15725273
ECCENTRICITY   = .00328
INCLINATION    = 97.5746
RA_OF_ASC_NODE = 17.9546
ARG_OF_PERICENTER = 238.5211
MEAN_ANOMALY   = 121.2815

EPHEMERIS_TYPE = 0
CLASSIFICATION_TYPE = U
NORAD_CAT_ID   = 29507
ELEMENT_SET_NO = 999
REV_AT_EPOCH   = 4551
BSTAR          = .43099E-3
MEAN_MOTION_DOT = .8258E-4
MEAN_MOTION_DDOT = 0

CCSDS_OMM_VERS = 2.0
CREATION_DATE  = 
ORIGINATOR     = 

OBJECT_NAME    = CZ-2C R/B
OBJECT_ID      = 2007-010B
CENTER_NAME    = EARTH
REF_FRAME      = TEME
TIME_SYSTEM    = UTC
MEAN_ELEMENT_THEORY = SGP/SGP4

EPOCH          = 2025-12-03T08:21:49.328640
MEAN_MOTION    = 14.20203342
ECCENTRICITY   = .0058477
INCLINATION    = 98.3973
RA_OF_ASC_NODE = 90.4721
ARG_OF_PERICENTER = 213.4462
MEAN_ANOMALY   = 146.3016

EPHEMERIS_TYPE = 0
CLASSIFICATION_TYPE = U
NORAD_CAT_ID   = 31114
ELEMENT_SET_NO = 999
REV_AT_EPOCH   = 96604
BSTAR          = .14055E-3
MEAN_MOTION_DOT = .264E-5
MEAN_MOTION_DDOT = 0

CCSDS_OMM_VERS = 2.0
CREATION_DATE  = 
ORIGINATOR     = 

OBJECT_NAME    = COSMO-SKYMED 1
OBJECT_ID      = 2007-023A
CENTER_NAME    = EARTH
REF_FRAME      = TEME
TIME_SYSTEM    = UTC
MEAN_ELEMENT_THEORY = SGP/SGP4

EPOCH          = 2025-12-03T11:44:27.272256
MEAN_MOTION    = 14.95656321
ECCENTRICITY   = .0001429
INCLINATION    = 97.8841
RA_OF_ASC_NODE = 162.8283
ARG_OF_PERICENTER = 80.9890
MEAN_ANOMALY   = 279.1492

EPHEMERIS_TYPE = 0
CLASSIFICATION_TYPE = U
NORAD_CAT_ID   = 31598
ELEMENT_SET_NO = 999
REV_AT_EPOCH   = 52
BSTAR          = .4747E-3
MEAN_MOTION_DOT = .522E-4
MEAN_MOTION_DDOT = 0

CCSDS_OMM_VERS = 2.0
CREATION_DATE  = 
ORIGINATOR     = 

OBJECT_NAME    = COSMOS 2428
OBJECT_ID      = 2007-029A
CENTER_NAME    = EARTH
REF_FRAME      = TEME
TIME_SYSTEM    = UTC
MEAN_ELEMENT_THEORY = SGP/SGP4

EPOCH          = 2025-12-03T11:07:55.852896
MEAN_MOTION    = 14.12886979
ECCENTRICITY   = .0003144
INCLINATION    = 70.9373
RA_OF_ASC_NODE = 45.3552
ARG_OF_PERICENTER = 37.4012
MEAN_ANOMALY   = 322.7327

EPHEMERIS_TYPE = 0
CLASSIFICATION_TYPE = U
NORAD_CAT_ID   = 31792
ELEMENT_SET_NO = 999
REV_AT_EPOCH   = 95050
BSTAR          = .40414E-4
MEAN_MOTION_DOT = .27E-6
MEAN_MOTION_DDOT = 0

CCSDS_OMM_VERS = 2.0
CREATION_DATE  = 
ORIGINATOR     = 

OBJECT_NAME    = SL-16 R/B
OBJECT_ID      = 2007-029B
CENTER_NAME    = EARTH
REF_FRAME      = TEME
TIME_SYSTEM    = UTC
MEAN_ELEMENT_THEORY = SGP/SGP4

EPOCH          = 2025-12-03T11:45:31.336128
MEAN_MOTION    = 14.14816225
ECCENTRICITY   = .0002439
INCLINATION    = 70.9769
RA_OF_ASC_NODE = 14.6021
ARG_OF_PERICENTER = 265.9046
MEAN_ANOMALY   = 201.5189

EPHEMERIS_TYPE = 0
CLASSIFICATION_TYPE = U
NORAD_CAT_ID   = 31793
ELEMENT_SET_NO = 999
REV_AT_EPOCH   = 95176
BSTAR          = -.61352E-4
MEAN_MOTION_DOT = -.166E-5
MEAN_MOTION_DDOT = 0

CCSDS_OMM_VERS = 2.0
CREATION_DATE  = 
ORIGINATOR     = 

OBJECT_NAME    = KORONAS-FOTON
OBJECT_ID      = 2009-003A
CENTER_NAME    = EARTH
REF_FRAME      = TEME
TIME_SYSTEM    = UTC
MEAN_ELEMENT_THEORY = SGP/SGP4

EPOCH          = 2025-12-03T03:27:38.117952
MEAN_MOTION    = 15.40861902
ECCENTRICITY   = .00126748
INCLINATION    = 82.4326
RA_OF_ASC_NODE = 16.0469
ARG_OF_PERICENTER = 139.1917
MEAN_ANOMALY   = 221.0280

EPHEMERIS_TYPE = 0
CLASSIFICATION_TYPE = U
NORAD_CAT_ID   = 33504
ELEMENT_SET_NO = 999
REV_AT_EPOCH   = 93086
BSTAR          = .36589776E-3
MEAN_MOTION_DOT = .15101E-3
MEAN_MOTION_DDOT = 0

CCSDS_OMM_VERS = 2.0
CREATION_DATE  = 
ORIGINATOR     = 

OBJECT_NAME    = CZ-2C R/B
OBJECT_ID      = 2011-030B
CENTER_NAME    = EARTH
REF_FRAME      = TEME
TIME_SYSTEM    = UTC
MEAN_ELEMENT_THEORY = SGP/SGP4

EPOCH          = 2025-12-03T21:02:19.186944
MEAN_MOTION    = 14.80851682
ECCENTRICITY   = .0051707
INCLINATION    = 97.8396
RA_OF_ASC_NODE = 292.1802
ARG_OF_PERICENTER = 303.2715
MEAN_ANOMALY   = 113.8213

EPHEMERIS_TYPE = 0
CLASSIFICATION_TYPE = U
NORAD_CAT_ID   = 37731
ELEMENT_SET_NO = 999
REV_AT_EPOCH   = 77591
BSTAR          = .36318E-3
MEAN_MOTION_DOT = .2813E-4
MEAN_MOTION_DDOT = 0

CCSDS_OMM_VERS = 2.0
CREATION_DATE  = 
ORIGINATOR     = 

OBJECT_NAME    = H-2A R/B
OBJECT_ID      = 2012-025E
CENTER_NAME    = EARTH
REF_FRAME      = TEME
TIME_SYSTEM    = UTC
MEAN_ELEMENT_THEORY = SGP/SGP4

EPOCH          = 2025-12-03T11:11:51.878688
MEAN_MOTION    = 14.94344662
ECCENTRICITY   = .0043934
INCLINATION    = 98.4578
RA_OF_ASC_NODE = 291.9829
ARG_OF_PERICENTER = 267.6903
MEAN_ANOMALY   = 91.9284

EPHEMERIS_TYPE = 0
CLASSIFICATION_TYPE = U
NORAD_CAT_ID   = 38341
ELEMENT_SET_NO = 999
REV_AT_EPOCH   = 73384
BSTAR          = .45341E-3
MEAN_MOTION_DOT = .4901E-4
MEAN_MOTION_DDOT = 0

CCSDS_OMM_VERS = 2.0
CREATION_DATE  = 
ORIGINATOR     = 

OBJECT_NAME    = SHIJIAN-16 (SJ-16)
OBJECT_ID      = 2013-057A
CENTER_NAME    = EARTH
REF_FRAME      = TEME
TIME_SYSTEM    = UTC
MEAN_ELEMENT_THEORY = SGP/SGP4

EPOCH          = 2025-12-03T21:14:27.979584
MEAN_MOTION    = 14.91950076
ECCENTRICITY   = .0017372
INCLINATION    = 74.9736
RA_OF_ASC_NODE = 6.4082
ARG_OF_PERICENTER = 340.6981
MEAN_ANOMALY   = 19.3546

EPHEMERIS_TYPE = 0
CLASSIFICATION_TYPE = U
NORAD_CAT_ID   = 39358
ELEMENT_SET_NO = 999
REV_AT_EPOCH   = 65721
BSTAR          = .18049E-3
MEAN_MOTION_DOT = .1803E-4
MEAN_MOTION_DDOT = 0

